{
  "type": "FeatureCollection",
  "features": [
    {
      "type": "Feature",
      "properties": {
        "norad_id": 37781,
        "name": "HAIYANG-2A",
        "group": "resource",
        "lat": -65.47485771829929,
        "lon": 18.622353371849606,
        "alt_km": 976.0405617707584,
        "timestamp": "2025-12-22T16:55:17.106959+00:00",
        "meta_object_name": "HAIYANG-2A",
        "meta_object_id": "2011-043A",
        "meta_epoch": "2025-12-22T06:47:52.096704",
        "meta_mean_motion": 13.78835734,
        "meta_eccentricity": 0.00016117,
        "meta_inclination": 99.3371,
        "meta_ra_of_asc_node": 357.0706,
        "meta_arg_of_pericenter": 69.9778,
        "meta_mean_anomaly": 290.1547,
        "meta_ephemeris_type": 0,
        "meta_classification_type": "U",
        "meta_norad_cat_id": 37781,
        "meta_element_set_no": 999,
        "meta_rev_at_epoch": 72230,
        "meta_bstar": -2.9753925e-05,
        "meta_mean_motion_dot": -7.4e-07,
        "meta_mean_motion_ddot": 0,
        "tle_line1": "1 37781U 11043A   25356.28324186 -.00000074  00000+0 -29754-4 0  9993",
        "tle_line2": "2 37781  99.3371 357.0706 0001611  69.9778 290.1547 13.78835734722304"
      },
      "geometry": {
        "type": "Point",
        "coordinates": [
          18.622353371849606,
          -65.47485771829929
        ]
      }
    },
    {
      "type": "Feature",
      "properties": {
        "norad_id": 37791,
        "name": "RASAT",
        "group": "resource",
        "lat": -0.24372504583606494,
        "lon": 85.84986139772077,
        "alt_km": 658.3588154416075,
        "timestamp": "2025-12-22T16:55:17.106970+00:00",
        "meta_object_name": "RASAT",
        "meta_object_id": "2011-044D",
        "meta_epoch": "2025-12-22T07:30:42.628032",
        "meta_mean_motion": 14.67921786,
        "meta_eccentricity": 0.00214444,
        "meta_inclination": 98.0651,
        "meta_ra_of_asc_node": 85.4291,
        "meta_arg_of_pericenter": 36.1698,
        "meta_mean_anomaly": 53.2093,
        "meta_ephemeris_type": 0,
        "meta_classification_type": "U",
        "meta_norad_cat_id": 37791,
        "meta_element_set_no": 999,
        "meta_rev_at_epoch": 76723,
        "meta_bstar": 0.00010526838,
        "meta_mean_motion_dot": 5.55e-06,
        "meta_mean_motion_ddot": 0,
        "tle_line1": "1 37791U 11044D   25356.31299338  .00000555  00000+0  10527-3 0  9998",
        "tle_line2": "2 37791  98.0651  85.4291 0021444  36.1698  53.2093 14.67921786767233"
      },
      "geometry": {
        "type": "Point",
        "coordinates": [
          85.84986139772077,
          -0.24372504583606494
        ]
      }
    },
    {
      "type": "Feature",
      "properties": {
        "norad_id": 37841,
        "name": "SRMSAT",
        "group": "resource",
        "lat": 17.58857976058843,
        "lon": 108.42625447455312,
        "alt_km": 840.6735787967955,
        "timestamp": "2025-12-22T16:55:17.106980+00:00",
        "meta_object_name": "SRMSAT",
        "meta_object_id": "2011-058D",
        "meta_epoch": "2025-12-22T04:55:04.592928",
        "meta_mean_motion": 14.11514493,
        "meta_eccentricity": 0.00119761,
        "meta_inclination": 19.9727,
        "meta_ra_of_asc_node": 50.6662,
        "meta_arg_of_pericenter": 57.2128,
        "meta_mean_anomaly": 338.1181,
        "meta_ephemeris_type": 0,
        "meta_classification_type": "U",
        "meta_norad_cat_id": 37841,
        "meta_element_set_no": 999,
        "meta_rev_at_epoch": 73278,
        "meta_bstar": 8.00517e-05,
        "meta_mean_motion_dot": 4.12e-06,
        "meta_mean_motion_ddot": 0,
        "tle_line1": "1 37841U 11058D   25356.20491427  .00000412  00000+0  80052-4 0  9993",
        "tle_line2": "2 37841  19.9727  50.6662 0011976  57.2128 338.1181 14.11514493732789"
      },
      "geometry": {
        "type": "Point",
        "coordinates": [
          108.42625447455312,
          17.58857976058843
        ]
      }
    },
    {
      "type": "Feature",
      "properties": {
        "norad_id": 38012,
        "name": "PLEIADES 1A",
        "group": "resource",
        "lat": -0.3890789359235604,
        "lon": -110.73591167926955,
        "alt_km": 701.0590401793688,
        "timestamp": "2025-12-22T16:55:17.106990+00:00",
        "meta_object_name": "PLEIADES 1A",
        "meta_object_id": "2011-076F",
        "meta_epoch": "2025-12-22T06:38:02.047776",
        "meta_mean_motion": 14.58569012,
        "meta_eccentricity": 0.00011259,
        "meta_inclination": 98.1818,
        "meta_ra_of_asc_node": 68.8981,
        "meta_arg_of_pericenter": 75.0299,
        "meta_mean_anomaly": 15.8069,
        "meta_ephemeris_type": 0,
        "meta_classification_type": "U",
        "meta_norad_cat_id": 38012,
        "meta_element_set_no": 999,
        "meta_rev_at_epoch": 74620,
        "meta_bstar": 5.7564221e-05,
        "meta_mean_motion_dot": 2.22e-06,
        "meta_mean_motion_ddot": 0,
        "tle_line1": "1 38012U 11076F   25356.27641259  .00000222  00000+0  57564-4 0  9992",
        "tle_line2": "2 38012  98.1818  68.8981 0001125  75.0299  15.8069 14.58569012746201"
      },
      "geometry": {
        "type": "Point",
        "coordinates": [
          -110.73591167926955,
          -0.3890789359235604
        ]
      }
    },
    {
      "type": "Feature",
      "properties": {
        "norad_id": 38038,
        "name": "ZIYUAN 1-02C (ZY 1-02C)",
        "group": "resource",
        "lat": 70.18551012137729,
        "lon": 38.22235575516114,
        "alt_km": 754.1259880269799,
        "timestamp": "2025-12-22T16:55:17.107001+00:00",
        "meta_object_name": "ZIYUAN 1-02C (ZY 1-02C)",
        "meta_object_id": "2011-079A",
        "meta_epoch": "2025-12-22T06:58:00.515136",
        "meta_mean_motion": 14.38021522,
        "meta_eccentricity": 0.00075052,
        "meta_inclination": 98.4326,
        "meta_ra_of_asc_node": 62.128,
        "meta_arg_of_pericenter": 113.4148,
        "meta_mean_anomaly": 332.6788,
        "meta_ephemeris_type": 0,
        "meta_classification_type": "U",
        "meta_norad_cat_id": 38038,
        "meta_element_set_no": 999,
        "meta_rev_at_epoch": 73378,
        "meta_bstar": 0.00011641649,
        "meta_mean_motion_dot": 3.09e-06,
        "meta_mean_motion_ddot": 0,
        "tle_line1": "1 38038U 11079A   25356.29028374  .00000309  00000+0  11642-3 0  9994",
        "tle_line2": "2 38038  98.4326  62.1280 0007505 113.4148 332.6788 14.38021522733787"
      },
      "geometry": {
        "type": "Point",
        "coordinates": [
          38.22235575516114,
          70.18551012137729
        ]
      }
    },
    {
      "type": "Feature",
      "properties": {
        "norad_id": 38338,
        "name": "ARIRANG-3 (KOMPSAT-3)",
        "group": "resource",
        "lat": -10.72708411816637,
        "lon": 129.7789694771884,
        "alt_km": 693.2025159406812,
        "timestamp": "2025-12-22T16:55:17.107011+00:00",
        "meta_object_name": "ARIRANG-3 (KOMPSAT-3)",
        "meta_object_id": "2012-025B",
        "meta_epoch": "2025-12-22T06:11:38.221728",
        "meta_mean_motion": 14.61724597,
        "meta_eccentricity": 0.00048075,
        "meta_inclination": 98.3336,
        "meta_ra_of_asc_node": 310.9198,
        "meta_arg_of_pericenter": 305.0975,
        "meta_mean_anomaly": 54.9775,
        "meta_ephemeris_type": 0,
        "meta_classification_type": "U",
        "meta_norad_cat_id": 38338,
        "meta_element_set_no": 999,
        "meta_rev_at_epoch": 72549,
        "meta_bstar": 0.00011577227,
        "meta_mean_motion_dot": 5.28e-06,
        "meta_mean_motion_ddot": 0,
        "tle_line1": "1 38338U 12025B   25356.25808127  .00000528  00000+0  11577-3 0  9997",
        "tle_line2": "2 38338  98.3336 310.9198 0004807 305.0975  54.9775 14.61724597725498"
      },
      "geometry": {
        "type": "Point",
        "coordinates": [
          129.7789694771884,
          -10.72708411816637
        ]
      }
    },
    {
      "type": "Feature",
      "properties": {
        "norad_id": 38709,
        "name": "EXACTVIEW-1 (ADS-1B)",
        "group": "resource",
        "lat": -48.93594475736955,
        "lon": 115.74145016368266,
        "alt_km": 808.4901944344192,
        "timestamp": "2025-12-22T16:55:17.107022+00:00",
        "meta_object_name": "EXACTVIEW-1 (ADS-1B)",
        "meta_object_id": "2012-039C",
        "meta_epoch": "2025-12-22T05:21:26.060256",
        "meta_mean_motion": 14.24911668,
        "meta_eccentricity": 0.0010213,
        "meta_inclination": 98.9637,
        "meta_ra_of_asc_node": 104.8123,
        "meta_arg_of_pericenter": 325.9795,
        "meta_mean_anomaly": 34.0728,
        "meta_ephemeris_type": 0,
        "meta_classification_type": "U",
        "meta_norad_cat_id": 38709,
        "meta_element_set_no": 999,
        "meta_rev_at_epoch": 69750,
        "meta_bstar": 8.2268124e-05,
        "meta_mean_motion_dot": 1.46e-06,
        "meta_mean_motion_ddot": 0,
        "tle_line1": "1 38709U 12039C   25356.22321829  .00000146  00000+0  82268-4 0  9992",
        "tle_line2": "2 38709  98.9637 104.8123 0010213 325.9795  34.0728 14.24911668697500"
      },
      "geometry": {
        "type": "Point",
        "coordinates": [
          115.74145016368266,
          -48.93594475736955
        ]
      }
    }
  ]
}